CALSPHERE 1             
1 00900U 64063C   08347.16350607  .00000176  00000-0  18784-3 0  6596
2 00900  90.1646 323.8507 0029581  71.6166 288.8182 13.70393725193850
CALSPHERE 2             
1 00902U 64063E   08348.01732391  .00000075  00000-0  10000-3 0  9322
2 00902  90.1652 326.9512 0020035  68.8859 291.4426 13.52459235992207
LCS 1                   
1 01361U 65034C   08344.80126107  .00000009  00000-0  10000-3 0   672
2 01361  32.1423 248.6808 0005209 340.2492  19.7800  9.89275319576606
TEMPSAT 1               
1 01512U 65065E   08347.43803260  .00000059  00000-0  10000-3 0   178
2 01512  89.8169 303.7826 0068667 203.3472 156.4542 13.33252801107749
CALSPHERE 4(A)          
1 01520U 65065H   08347.48294687  .00000060  00000-0  10000-3 0  1486
2 01520  90.1920  79.8069 0071415 132.5260 228.1935 13.35302992109330
OPS 5712 (P/L 160)      
1 02826U 67053A   08348.14197907  .00000294  00000-0  11641-3 0  5964
2 02826  69.9337 235.8284 0004649  17.7355 342.3954 14.38103024140540
OPS 5712 (P/L 153)      
1 02874U 67053H   08347.90735854 -.00000017  00000-0  26259-4 0  9813
2 02874  69.9705 130.6339 0009434 223.7387 136.2981 13.95914526114546
SURCAL 150B             
1 02909U 67053J   08347.69452847  .00000484  00000-0  15186-3 0  7716
2 02909  69.9566  56.8212 0007833 245.2839 114.7471 14.46290791146000
RIGIDSPHERE 2 (LCS 4)   
1 05398U 71067E   08347.85917114  .00000156  00000-0  50760-4 0  4342
2 05398  87.6204 300.6302 0068109  67.1443 293.6926 14.31110660957918
RADCAT                  
1 06212U 72076A   08347.78550224  .00001860  00000-0  71341-4 0  6226
2 06212  98.5829 321.4286 0002033 282.8177  77.2816 15.28120053 94408
